{
  "league": {
    "id": 188,
    "name": "A-League",
    "name_ar": "الدوري الأسترالي",
    "country": "Australia",
    "country_ar": "أستراليا",
    "logo": "https://media.api-sports.io/football/leagues/188.png",
    "season": "2024-2025"
  },
  "teams": [
    {
      "id": 11000,
      "name": "Australian Team 1",
      "name_ar": "فريق أسترالي 1",
      "code": "AUS1",
      "logo": "https://media.api-sports.io/football/teams/11000.png",
      "founded": 1920,
      "stadium": {
        "name": "Stadium 1",
        "name_ar": "ملعب 1",
        "capacity": 20000,
        "city": "Australia",
        "city_ar": "أستراليا"
      },
      "nickname": "Team 1",
      "nickname_ar": "فريق 1",
      "colors": {
        "primary": "Yellow",
        "secondary": "Green"
      },
      "trophies": {
        "league_titles": 0,
        "domestic_cups": 0,
        "european_cups": 0
      }
    },
    {
      "id": 11001,
      "name": "Australian Team 2",
      "name_ar": "فريق أسترالي 2",
      "code": "AUS2",
      "logo": "https://media.api-sports.io/football/teams/11001.png",
      "founded": 1921,
      "stadium": {
        "name": "Stadium 2",
        "name_ar": "ملعب 2",
        "capacity": 20000,
        "city": "Australia",
        "city_ar": "أستراليا"
      },
      "nickname": "Team 2",
      "nickname_ar": "فريق 2",
      "colors": {
        "primary": "Yellow",
        "secondary": "Green"
      },
      "trophies": {
        "league_titles": 0,
        "domestic_cups": 0,
        "european_cups": 0
      }
    },
    {
      "id": 11002,
      "name": "Australian Team 3",
      "name_ar": "فريق أسترالي 3",
      "code": "AUS3",
      "logo": "https://media.api-sports.io/football/teams/11002.png",
      "founded": 1922,
      "stadium": {
        "name": "Stadium 3",
        "name_ar": "ملعب 3",
        "capacity": 20000,
        "city": "Australia",
        "city_ar": "أستراليا"
      },
      "nickname": "Team 3",
      "nickname_ar": "فريق 3",
      "colors": {
        "primary": "Yellow",
        "secondary": "Green"
      },
      "trophies": {
        "league_titles": 0,
        "domestic_cups": 0,
        "european_cups": 0
      }
    },
    {
      "id": 11003,
      "name": "Australian Team 4",
      "name_ar": "فريق أسترالي 4",
      "code": "AUS4",
      "logo": "https://media.api-sports.io/football/teams/11003.png",
      "founded": 1923,
      "stadium": {
        "name": "Stadium 4",
        "name_ar": "ملعب 4",
        "capacity": 20000,
        "city": "Australia",
        "city_ar": "أستراليا"
      },
      "nickname": "Team 4",
      "nickname_ar": "فريق 4",
      "colors": {
        "primary": "Yellow",
        "secondary": "Green"
      },
      "trophies": {
        "league_titles": 0,
        "domestic_cups": 0,
        "european_cups": 0
      }
    },
    {
      "id": 11004,
      "name": "Australian Team 5",
      "name_ar": "فريق أسترالي 5",
      "code": "AUS5",
      "logo": "https://media.api-sports.io/football/teams/11004.png",
      "founded": 1924,
      "stadium": {
        "name": "Stadium 5",
        "name_ar": "ملعب 5",
        "capacity": 20000,
        "city": "Australia",
        "city_ar": "أستراليا"
      },
      "nickname": "Team 5",
      "nickname_ar": "فريق 5",
      "colors": {
        "primary": "Yellow",
        "secondary": "Green"
      },
      "trophies": {
        "league_titles": 0,
        "domestic_cups": 0,
        "european_cups": 0
      }
    },
    {
      "id": 11005,
      "name": "Australian Team 6",
      "name_ar": "فريق أسترالي 6",
      "code": "AUS6",
      "logo": "https://media.api-sports.io/football/teams/11005.png",
      "founded": 1925,
      "stadium": {
        "name": "Stadium 6",
        "name_ar": "ملعب 6",
        "capacity": 20000,
        "city": "Australia",
        "city_ar": "أستراليا"
      },
      "nickname": "Team 6",
      "nickname_ar": "فريق 6",
      "colors": {
        "primary": "Yellow",
        "secondary": "Green"
      },
      "trophies": {
        "league_titles": 0,
        "domestic_cups": 0,
        "european_cups": 0
      }
    },
    {
      "id": 11006,
      "name": "Australian Team 7",
      "name_ar": "فريق أسترالي 7",
      "code": "AUS7",
      "logo": "https://media.api-sports.io/football/teams/11006.png",
      "founded": 1926,
      "stadium": {
        "name": "Stadium 7",
        "name_ar": "ملعب 7",
        "capacity": 20000,
        "city": "Australia",
        "city_ar": "أستراليا"
      },
      "nickname": "Team 7",
      "nickname_ar": "فريق 7",
      "colors": {
        "primary": "Yellow",
        "secondary": "Green"
      },
      "trophies": {
        "league_titles": 0,
        "domestic_cups": 0,
        "european_cups": 0
      }
    },
    {
      "id": 11007,
      "name": "Australian Team 8",
      "name_ar": "فريق أسترالي 8",
      "code": "AUS8",
      "logo": "https://media.api-sports.io/football/teams/11007.png",
      "founded": 1927,
      "stadium": {
        "name": "Stadium 8",
        "name_ar": "ملعب 8",
        "capacity": 20000,
        "city": "Australia",
        "city_ar": "أستراليا"
      },
      "nickname": "Team 8",
      "nickname_ar": "فريق 8",
      "colors": {
        "primary": "Yellow",
        "secondary": "Green"
      },
      "trophies": {
        "league_titles": 0,
        "domestic_cups": 0,
        "european_cups": 0
      }
    },
    {
      "id": 11008,
      "name": "Australian Team 9",
      "name_ar": "فريق أسترالي 9",
      "code": "AUS9",
      "logo": "https://media.api-sports.io/football/teams/11008.png",
      "founded": 1928,
      "stadium": {
        "name": "Stadium 9",
        "name_ar": "ملعب 9",
        "capacity": 20000,
        "city": "Australia",
        "city_ar": "أستراليا"
      },
      "nickname": "Team 9",
      "nickname_ar": "فريق 9",
      "colors": {
        "primary": "Yellow",
        "secondary": "Green"
      },
      "trophies": {
        "league_titles": 0,
        "domestic_cups": 0,
        "european_cups": 0
      }
    },
    {
      "id": 11009,
      "name": "Australian Team 10",
      "name_ar": "فريق أسترالي 10",
      "code": "AUS10",
      "logo": "https://media.api-sports.io/football/teams/11009.png",
      "founded": 1929,
      "stadium": {
        "name": "Stadium 10",
        "name_ar": "ملعب 10",
        "capacity": 20000,
        "city": "Australia",
        "city_ar": "أستراليا"
      },
      "nickname": "Team 10",
      "nickname_ar": "فريق 10",
      "colors": {
        "primary": "Yellow",
        "secondary": "Green"
      },
      "trophies": {
        "league_titles": 0,
        "domestic_cups": 0,
        "european_cups": 0
      }
    },
    {
      "id": 11010,
      "name": "Australian Team 11",
      "name_ar": "فريق أسترالي 11",
      "code": "AUS11",
      "logo": "https://media.api-sports.io/football/teams/11010.png",
      "founded": 1930,
      "stadium": {
        "name": "Stadium 11",
        "name_ar": "ملعب 11",
        "capacity": 20000,
        "city": "Australia",
        "city_ar": "أستراليا"
      },
      "nickname": "Team 11",
      "nickname_ar": "فريق 11",
      "colors": {
        "primary": "Yellow",
        "secondary": "Green"
      },
      "trophies": {
        "league_titles": 0,
        "domestic_cups": 0,
        "european_cups": 0
      }
    },
    {
      "id": 11011,
      "name": "Australian Team 12",
      "name_ar": "فريق أسترالي 12",
      "code": "AUS12",
      "logo": "https://media.api-sports.io/football/teams/11011.png",
      "founded": 1931,
      "stadium": {
        "name": "Stadium 12",
        "name_ar": "ملعب 12",
        "capacity": 20000,
        "city": "Australia",
        "city_ar": "أستراليا"
      },
      "nickname": "Team 12",
      "nickname_ar": "فريق 12",
      "colors": {
        "primary": "Yellow",
        "secondary": "Green"
      },
      "trophies": {
        "league_titles": 0,
        "domestic_cups": 0,
        "european_cups": 0
      }
    }
  ],
  "total_teams": 12,
  "last_updated": "2025-12-15T23:37:25Z"
}