{
  "league": {
    "id": 179,
    "name": "Premiership",
    "name_ar": "الدوري الاسكتلندي الممتاز",
    "country": "Scotland",
    "country_ar": "اسكتلندا",
    "logo": "https://media.api-sports.io/football/leagues/179.png",
    "season": "2024-2025"
  },
  "teams": [
    {
      "id": 247,
      "name": "Celtic",
      "name_ar": "سلتيك",
      "code": "CEL",
      "logo": "https://media.api-sports.io/football/teams/247.png",
      "founded": 1887,
      "stadium": {
        "name": "Celtic Park",
        "name_ar": "سلتيك بارك",
        "capacity": 60411,
        "city": "Glasgow",
        "city_ar": "غلاسكو"
      },
      "nickname": "The Bhoys",
      "nickname_ar": "الأولاد",
      "colors": {
        "primary": "Green",
        "secondary": "White"
      },
      "trophies": {
        "league_titles": 53,
        "domestic_cups": 40,
        "european_cups": 1
      }
    },
    {
      "id": 248,
      "name": "Rangers",
      "name_ar": "رينجرز",
      "code": "RAN",
      "logo": "https://media.api-sports.io/football/teams/248.png",
      "founded": 1872,
      "stadium": {
        "name": "Ibrox Stadium",
        "name_ar": "إيبروكس",
        "capacity": 50817,
        "city": "Glasgow",
        "city_ar": "غلاسكو"
      },
      "nickname": "The Gers",
      "nickname_ar": "الجيرز",
      "colors": {
        "primary": "Blue",
        "secondary": "White"
      },
      "trophies": {
        "league_titles": 55,
        "domestic_cups": 34,
        "european_cups": 0
      }
    },
    {
      "id": 249,
      "name": "Aberdeen",
      "name_ar": "أبردين",
      "code": "ABE",
      "logo": "https://media.api-sports.io/football/teams/249.png",
      "founded": 1903,
      "stadium": {
        "name": "Pittodrie Stadium",
        "name_ar": "بيتودري",
        "capacity": 20866,
        "city": "Aberdeen",
        "city_ar": "أبردين"
      },
      "nickname": "The Dons",
      "nickname_ar": "الدونز",
      "colors": {
        "primary": "Red",
        "secondary": "White"
      },
      "trophies": {
        "league_titles": 4,
        "domestic_cups": 7,
        "european_cups": 0
      }
    },
    {
      "id": 250,
      "name": "Scottish Team 4",
      "name_ar": "فريق اسكتلندي 4",
      "code": "SCO4",
      "logo": "https://media.api-sports.io/football/teams/250.png",
      "founded": 1900,
      "stadium": {
        "name": "Stadium 4",
        "name_ar": "ملعب 4",
        "capacity": 10000,
        "city": "Scotland",
        "city_ar": "اسكتلندا"
      },
      "nickname": "Team 4",
      "nickname_ar": "فريق 4",
      "colors": {
        "primary": "Blue",
        "secondary": "White"
      },
      "trophies": {
        "league_titles": 0,
        "domestic_cups": 0,
        "european_cups": 0
      }
    },
    {
      "id": 251,
      "name": "Scottish Team 5",
      "name_ar": "فريق اسكتلندي 5",
      "code": "SCO5",
      "logo": "https://media.api-sports.io/football/teams/251.png",
      "founded": 1901,
      "stadium": {
        "name": "Stadium 5",
        "name_ar": "ملعب 5",
        "capacity": 11000,
        "city": "Scotland",
        "city_ar": "اسكتلندا"
      },
      "nickname": "Team 5",
      "nickname_ar": "فريق 5",
      "colors": {
        "primary": "Blue",
        "secondary": "White"
      },
      "trophies": {
        "league_titles": 0,
        "domestic_cups": 0,
        "european_cups": 0
      }
    },
    {
      "id": 252,
      "name": "Scottish Team 6",
      "name_ar": "فريق اسكتلندي 6",
      "code": "SCO6",
      "logo": "https://media.api-sports.io/football/teams/252.png",
      "founded": 1902,
      "stadium": {
        "name": "Stadium 6",
        "name_ar": "ملعب 6",
        "capacity": 12000,
        "city": "Scotland",
        "city_ar": "اسكتلندا"
      },
      "nickname": "Team 6",
      "nickname_ar": "فريق 6",
      "colors": {
        "primary": "Blue",
        "secondary": "White"
      },
      "trophies": {
        "league_titles": 0,
        "domestic_cups": 0,
        "european_cups": 0
      }
    },
    {
      "id": 253,
      "name": "Scottish Team 7",
      "name_ar": "فريق اسكتلندي 7",
      "code": "SCO7",
      "logo": "https://media.api-sports.io/football/teams/253.png",
      "founded": 1903,
      "stadium": {
        "name": "Stadium 7",
        "name_ar": "ملعب 7",
        "capacity": 13000,
        "city": "Scotland",
        "city_ar": "اسكتلندا"
      },
      "nickname": "Team 7",
      "nickname_ar": "فريق 7",
      "colors": {
        "primary": "Blue",
        "secondary": "White"
      },
      "trophies": {
        "league_titles": 0,
        "domestic_cups": 0,
        "european_cups": 0
      }
    },
    {
      "id": 254,
      "name": "Scottish Team 8",
      "name_ar": "فريق اسكتلندي 8",
      "code": "SCO8",
      "logo": "https://media.api-sports.io/football/teams/254.png",
      "founded": 1904,
      "stadium": {
        "name": "Stadium 8",
        "name_ar": "ملعب 8",
        "capacity": 14000,
        "city": "Scotland",
        "city_ar": "اسكتلندا"
      },
      "nickname": "Team 8",
      "nickname_ar": "فريق 8",
      "colors": {
        "primary": "Blue",
        "secondary": "White"
      },
      "trophies": {
        "league_titles": 0,
        "domestic_cups": 0,
        "european_cups": 0
      }
    },
    {
      "id": 255,
      "name": "Scottish Team 9",
      "name_ar": "فريق اسكتلندي 9",
      "code": "SCO9",
      "logo": "https://media.api-sports.io/football/teams/255.png",
      "founded": 1905,
      "stadium": {
        "name": "Stadium 9",
        "name_ar": "ملعب 9",
        "capacity": 15000,
        "city": "Scotland",
        "city_ar": "اسكتلندا"
      },
      "nickname": "Team 9",
      "nickname_ar": "فريق 9",
      "colors": {
        "primary": "Blue",
        "secondary": "White"
      },
      "trophies": {
        "league_titles": 0,
        "domestic_cups": 0,
        "european_cups": 0
      }
    },
    {
      "id": 256,
      "name": "Scottish Team 10",
      "name_ar": "فريق اسكتلندي 10",
      "code": "SCO10",
      "logo": "https://media.api-sports.io/football/teams/256.png",
      "founded": 1906,
      "stadium": {
        "name": "Stadium 10",
        "name_ar": "ملعب 10",
        "capacity": 16000,
        "city": "Scotland",
        "city_ar": "اسكتلندا"
      },
      "nickname": "Team 10",
      "nickname_ar": "فريق 10",
      "colors": {
        "primary": "Blue",
        "secondary": "White"
      },
      "trophies": {
        "league_titles": 0,
        "domestic_cups": 0,
        "european_cups": 0
      }
    },
    {
      "id": 257,
      "name": "Scottish Team 11",
      "name_ar": "فريق اسكتلندي 11",
      "code": "SCO11",
      "logo": "https://media.api-sports.io/football/teams/257.png",
      "founded": 1907,
      "stadium": {
        "name": "Stadium 11",
        "name_ar": "ملعب 11",
        "capacity": 17000,
        "city": "Scotland",
        "city_ar": "اسكتلندا"
      },
      "nickname": "Team 11",
      "nickname_ar": "فريق 11",
      "colors": {
        "primary": "Blue",
        "secondary": "White"
      },
      "trophies": {
        "league_titles": 0,
        "domestic_cups": 0,
        "european_cups": 0
      }
    },
    {
      "id": 258,
      "name": "Scottish Team 12",
      "name_ar": "فريق اسكتلندي 12",
      "code": "SCO12",
      "logo": "https://media.api-sports.io/football/teams/258.png",
      "founded": 1908,
      "stadium": {
        "name": "Stadium 12",
        "name_ar": "ملعب 12",
        "capacity": 18000,
        "city": "Scotland",
        "city_ar": "اسكتلندا"
      },
      "nickname": "Team 12",
      "nickname_ar": "فريق 12",
      "colors": {
        "primary": "Blue",
        "secondary": "White"
      },
      "trophies": {
        "league_titles": 0,
        "domestic_cups": 0,
        "european_cups": 0
      }
    }
  ],
  "total_teams": 12,
  "last_updated": "2025-12-15T23:36:26Z"
}